SL-8 R/B                
1 11574U 79089B   26082.33991296  .00000179  00000+0  62042-4 0  9995
2 11574  74.0676  65.7725 0016922 236.8483 123.1050 14.42357959438079
SL-14 R/B               
1 11672U 80005B   26082.55308071  .00000550  00000+0  52961-4 0  9993
2 11672  82.5118 294.0836 0017109 114.9537 245.3462 14.90945183478553
SL-8 R/B                
1 12139U 81003B   26082.50838078  .00020095  00000+0  50653-3 0  9992
2 12139  82.9352 277.2402 0261293 130.5023 231.9301 15.11563206316760
SL-3 R/B                
1 12465U 81046B   26082.47506677  .00013213  00000+0  30398-3 0  9992
2 12465  81.2285 273.1833 0018488 333.8416  26.1890 15.42326954440555
SL-3 R/B                
1 12904U 81103B   26082.51755363  .00006150  00000+0  27143-3 0  9993
2 12904  81.1609 197.2113 0012589 236.6925 123.3102 15.21538710975337
SL-3 R/B                
1 13068U 82013B   26082.45427191  .00005275  00000+0  22729-3 0  9996
2 13068  81.1740 144.6379 0023414 131.8797 228.4438 15.22140295406445
SL-3 R/B                
1 13154U 82039B   26082.57144032  .00002858  00000+0  17216-3 0  9992
2 13154  81.1576 199.9562 0028973 278.7825  81.0119 15.10156057383738
SL-3 R/B                
1 13403U 82079B   26082.51244119  .00006030  00000+0  23854-3 0  9995
2 13403  81.1486 176.7571 0025451 119.2317 241.1467 15.24987301379808
SL-14 R/B               
1 13553U 82092B   26082.36445843  .00000444  00000+0  47133-4 0  9996
2 13553  82.5669 128.6079 0018819 254.6003 115.6953 14.86678479330966
SL-3 R/B                
1 13819U 83010B   26082.47706232  .00016984  00000+0  33589-3 0  9991
2 13819  81.1052 345.3405 0016537   5.0434 355.0974 15.46824283360075
SL-3 R/B                
1 14208U 83075B   26082.47497409  .00012404  00000+0  32359-3 0  9995
2 14208  97.6145  87.5778 0021632 175.0362 185.1101 15.38736369332274
COSMOS 1536             
1 14699U 84013A   26082.31206152  .00008306  00000+0  34086-3 0  9993
2 14699  82.5418  94.3036 0012814 229.0949 130.9179 15.24002720274696
SL-14 R/B               
1 14820U 84027B   26082.42991064  .00000543  00000+0  59318-4 0  9990
2 14820  82.5404 232.1240 0016540 289.6389  70.3042 14.85990264249677
SL-8 R/B                
1 15483U 85006B   26082.42890211  .00000349  00000+0  12423-3 0  9995
2 15483  74.0441 235.8646 0017886 149.9194 241.3509 14.37793157156007
SL-12 R/B(2)            
1 15772U 85042D   26082.34979748  .00000146  00000+0  87287-4 0  9996
2 15772  71.1075  58.8660 0032866 105.5028 359.4506 14.21986022116335
SL-14 R/B               
1 15945U 85069B   26082.54515108  .00000515  00000+0  55336-4 0  9995
2 15945  82.5303  11.9075 0019691 142.6063 217.6528 14.86447698174895
SL-16 R/B               
1 16182U 85097B   26082.56490813  .00000200  00000+0  12444-3 0  9990
2 16182  71.0011 111.3423 0009549 243.3089 283.1483 14.16602377 89194
