[{"OBJECT_NAME":"SL-8 R/B","OBJECT_ID":"1979-089B","EPOCH":"2026-03-23T08:09:28.479744","MEAN_MOTION":14.42357959,"ECCENTRICITY":0.0016922,"INCLINATION":74.0676,"RA_OF_ASC_NODE":65.7725,"ARG_OF_PERICENTER":236.8483,"MEAN_ANOMALY":123.105,"EPHEMERIS_TYPE":0,"CLASSIFICATION_TYPE":"U","NORAD_CAT_ID":11574,"ELEMENT_SET_NO":999,"REV_AT_EPOCH":43807,"BSTAR":6.2042e-5,"MEAN_MOTION_DOT":1.79e-6,"MEAN_MOTION_DDOT":0},{"OBJECT_NAME":"SL-14 R/B","OBJECT_ID":"1980-005B","EPOCH":"2026-03-23T13:16:26.173344","MEAN_MOTION":14.90945183,"ECCENTRICITY":0.0017109,"INCLINATION":82.5118,"RA_OF_ASC_NODE":294.0836,"ARG_OF_PERICENTER":114.9537,"MEAN_ANOMALY":245.3462,"EPHEMERIS_TYPE":0,"CLASSIFICATION_TYPE":"U","NORAD_CAT_ID":11672,"ELEMENT_SET_NO":999,"REV_AT_EPOCH":47855,"BSTAR":5.2961e-5,"MEAN_MOTION_DOT":5.5e-6,"MEAN_MOTION_DDOT":0},{"OBJECT_NAME":"SL-8 R/B","OBJECT_ID":"1981-003B","EPOCH":"2026-03-23T12:12:04.099392","MEAN_MOTION":15.11563206,"ECCENTRICITY":0.0261293,"INCLINATION":82.9352,"RA_OF_ASC_NODE":277.2402,"ARG_OF_PERICENTER":130.5023,"MEAN_ANOMALY":231.9301,"EPHEMERIS_TYPE":0,"CLASSIFICATION_TYPE":"U","NORAD_CAT_ID":12139,"ELEMENT_SET_NO":999,"REV_AT_EPOCH":31676,"BSTAR":0.00050653,"MEAN_MOTION_DOT":0.00020095,"MEAN_MOTION_DDOT":0},{"OBJECT_NAME":"SL-3 R/B","OBJECT_ID":"1981-046B","EPOCH":"2026-03-23T11:24:05.768928","MEAN_MOTION":15.42326954,"ECCENTRICITY":0.0018488,"INCLINATION":81.2285,"RA_OF_ASC_NODE":273.1833,"ARG_OF_PERICENTER":333.8416,"MEAN_ANOMALY":26.189,"EPHEMERIS_TYPE":0,"CLASSIFICATION_TYPE":"U","NORAD_CAT_ID":12465,"ELEMENT_SET_NO":999,"REV_AT_EPOCH":44055,"BSTAR":0.00030398,"MEAN_MOTION_DOT":0.00013213,"MEAN_MOTION_DDOT":0},{"OBJECT_NAME":"SL-3 R/B","OBJECT_ID":"1981-103B","EPOCH":"2026-03-23T12:25:16.633632","MEAN_MOTION":15.2153871,"ECCENTRICITY":0.0012589,"INCLINATION":81.1609,"RA_OF_ASC_NODE":197.2113,"ARG_OF_PERICENTER":236.6925,"MEAN_ANOMALY":123.3102,"EPHEMERIS_TYPE":0,"CLASSIFICATION_TYPE":"U","NORAD_CAT_ID":12904,"ELEMENT_SET_NO":999,"REV_AT_EPOCH":97533,"BSTAR":0.00027143,"MEAN_MOTION_DOT":6.15e-5,"MEAN_MOTION_DDOT":0},{"OBJECT_NAME":"SL-3 R/B","OBJECT_ID":"1982-013B","EPOCH":"2026-03-23T10:54:09.093024","MEAN_MOTION":15.22140295,"ECCENTRICITY":0.0023414,"INCLINATION":81.174,"RA_OF_ASC_NODE":144.6379,"ARG_OF_PERICENTER":131.8797,"MEAN_ANOMALY":228.4438,"EPHEMERIS_TYPE":0,"CLASSIFICATION_TYPE":"U","NORAD_CAT_ID":13068,"ELEMENT_SET_NO":999,"REV_AT_EPOCH":40644,"BSTAR":0.00022729,"MEAN_MOTION_DOT":5.275e-5,"MEAN_MOTION_DDOT":0},{"OBJECT_NAME":"SL-3 R/B","OBJECT_ID":"1982-039B","EPOCH":"2026-03-23T13:42:52.443648","MEAN_MOTION":15.10156057,"ECCENTRICITY":0.0028973,"INCLINATION":81.1576,"RA_OF_ASC_NODE":199.9562,"ARG_OF_PERICENTER":278.7825,"MEAN_ANOMALY":81.0119,"EPHEMERIS_TYPE":0,"CLASSIFICATION_TYPE":"U","NORAD_CAT_ID":13154,"ELEMENT_SET_NO":999,"REV_AT_EPOCH":38373,"BSTAR":0.00017216,"MEAN_MOTION_DOT":2.858e-5,"MEAN_MOTION_DDOT":0},{"OBJECT_NAME":"SL-3 R/B","OBJECT_ID":"1982-079B","EPOCH":"2026-03-23T12:17:54.918816","MEAN_MOTION":15.24987301,"ECCENTRICITY":0.0025451,"INCLINATION":81.1486,"RA_OF_ASC_NODE":176.7571,"ARG_OF_PERICENTER":119.2317,"MEAN_ANOMALY":241.1467,"EPHEMERIS_TYPE":0,"CLASSIFICATION_TYPE":"U","NORAD_CAT_ID":13403,"ELEMENT_SET_NO":999,"REV_AT_EPOCH":37980,"BSTAR":0.00023854,"MEAN_MOTION_DOT":6.03e-5,"MEAN_MOTION_DDOT":0},{"OBJECT_NAME":"SL-14 R/B","OBJECT_ID":"1982-092B","EPOCH":"2026-03-23T08:44:49.208352","MEAN_MOTION":14.86678479,"ECCENTRICITY":0.0018819,"INCLINATION":82.5669,"RA_OF_ASC_NODE":128.6079,"ARG_OF_PERICENTER":254.6003,"MEAN_ANOMALY":115.6953,"EPHEMERIS_TYPE":0,"CLASSIFICATION_TYPE":"U","NORAD_CAT_ID":13553,"ELEMENT_SET_NO":999,"REV_AT_EPOCH":33096,"BSTAR":4.7133e-5,"MEAN_MOTION_DOT":4.44e-6,"MEAN_MOTION_DDOT":0},{"OBJECT_NAME":"SL-3 R/B","OBJECT_ID":"1983-010B","EPOCH":"2026-03-23T11:26:58.184448","MEAN_MOTION":15.46824283,"ECCENTRICITY":0.0016537,"INCLINATION":81.1052,"RA_OF_ASC_NODE":345.3405,"ARG_OF_PERICENTER":5.0434,"MEAN_ANOMALY":355.0974,"EPHEMERIS_TYPE":0,"CLASSIFICATION_TYPE":"U","NORAD_CAT_ID":13819,"ELEMENT_SET_NO":999,"REV_AT_EPOCH":36007,"BSTAR":0.00033589,"MEAN_MOTION_DOT":0.00016984,"MEAN_MOTION_DDOT":0},{"OBJECT_NAME":"SL-3 R/B","OBJECT_ID":"1983-075B","EPOCH":"2026-03-23T11:23:57.761376","MEAN_MOTION":15.38736369,"ECCENTRICITY":0.0021632,"INCLINATION":97.6145,"RA_OF_ASC_NODE":87.5778,"ARG_OF_PERICENTER":175.0362,"MEAN_ANOMALY":185.1101,"EPHEMERIS_TYPE":0,"CLASSIFICATION_TYPE":"U","NORAD_CAT_ID":14208,"ELEMENT_SET_NO":999,"REV_AT_EPOCH":33227,"BSTAR":0.00032359,"MEAN_MOTION_DOT":0.00012404,"MEAN_MOTION_DDOT":0},{"OBJECT_NAME":"COSMOS 1536","OBJECT_ID":"1984-013A","EPOCH":"2026-03-23T07:29:22.115328","MEAN_MOTION":15.2400272,"ECCENTRICITY":0.0012814,"INCLINATION":82.5418,"RA_OF_ASC_NODE":94.3036,"ARG_OF_PERICENTER":229.0949,"MEAN_ANOMALY":130.9179,"EPHEMERIS_TYPE":0,"CLASSIFICATION_TYPE":"U","NORAD_CAT_ID":14699,"ELEMENT_SET_NO":999,"REV_AT_EPOCH":27469,"BSTAR":0.00034086,"MEAN_MOTION_DOT":8.306e-5,"MEAN_MOTION_DDOT":0},{"OBJECT_NAME":"SL-14 R/B","OBJECT_ID":"1984-027B","EPOCH":"2026-03-23T10:19:04.279296","MEAN_MOTION":14.85990264,"ECCENTRICITY":0.001654,"INCLINATION":82.5404,"RA_OF_ASC_NODE":232.124,"ARG_OF_PERICENTER":289.6389,"MEAN_ANOMALY":70.3042,"EPHEMERIS_TYPE":0,"CLASSIFICATION_TYPE":"U","NORAD_CAT_ID":14820,"ELEMENT_SET_NO":999,"REV_AT_EPOCH":24967,"BSTAR":5.9318e-5,"MEAN_MOTION_DOT":5.43e-6,"MEAN_MOTION_DDOT":0},{"OBJECT_NAME":"SL-8 R/B","OBJECT_ID":"1985-006B","EPOCH":"2026-03-23T10:17:37.142304","MEAN_MOTION":14.37793157,"ECCENTRICITY":0.0017886,"INCLINATION":74.0441,"RA_OF_ASC_NODE":235.8646,"ARG_OF_PERICENTER":149.9194,"MEAN_ANOMALY":241.3509,"EPHEMERIS_TYPE":0,"CLASSIFICATION_TYPE":"U","NORAD_CAT_ID":15483,"ELEMENT_SET_NO":999,"REV_AT_EPOCH":15600,"BSTAR":0.00012423,"MEAN_MOTION_DOT":3.49e-6,"MEAN_MOTION_DDOT":0},{"OBJECT_NAME":"SL-12 R/B(2)","OBJECT_ID":"1985-042D","EPOCH":"2026-03-23T08:23:42.502272","MEAN_MOTION":14.21986022,"ECCENTRICITY":0.0032866,"INCLINATION":71.1075,"RA_OF_ASC_NODE":58.866,"ARG_OF_PERICENTER":105.5028,"MEAN_ANOMALY":359.4506,"EPHEMERIS_TYPE":0,"CLASSIFICATION_TYPE":"U","NORAD_CAT_ID":15772,"ELEMENT_SET_NO":999,"REV_AT_EPOCH":11633,"BSTAR":8.7287e-5,"MEAN_MOTION_DOT":1.46e-6,"MEAN_MOTION_DDOT":0},{"OBJECT_NAME":"SL-14 R/B","OBJECT_ID":"1985-069B","EPOCH":"2026-03-23T13:05:01.053312","MEAN_MOTION":14.86447698,"ECCENTRICITY":0.0019691,"INCLINATION":82.5303,"RA_OF_ASC_NODE":11.9075,"ARG_OF_PERICENTER":142.6063,"MEAN_ANOMALY":217.6528,"EPHEMERIS_TYPE":0,"CLASSIFICATION_TYPE":"U","NORAD_CAT_ID":15945,"ELEMENT_SET_NO":999,"REV_AT_EPOCH":17489,"BSTAR":5.5336e-5,"MEAN_MOTION_DOT":5.15e-6,"MEAN_MOTION_DDOT":0},{"OBJECT_NAME":"SL-16 R/B","OBJECT_ID":"1985-097B","EPOCH":"2026-03-23T13:33:28.062432","MEAN_MOTION":14.16602377,"ECCENTRICITY":0.0009549,"INCLINATION":71.0011,"RA_OF_ASC_NODE":111.3423,"ARG_OF_PERICENTER":243.3089,"MEAN_ANOMALY":283.1483,"EPHEMERIS_TYPE":0,"CLASSIFICATION_TYPE":"U","NORAD_CAT_ID":16182,"ELEMENT_SET_NO":999,"REV_AT_EPOCH":8919,"BSTAR":0.00012444,"MEAN_MOTION_DOT":2.0e-6,"MEAN_MOTION_DDOT":0}]
